[
    {
        "Altitude(m)": 622200.1499147104,
        "Argument of Periapsis(deg)": 0.0,
        "Eccentricity": 0.0,
        "Inclination(deg)": 60.0,
        "Latitude(deg)": -52.162656117448144,
        "Longitude(deg)": -67.63920432866583,
        "Mean Anomaly(deg)": -65.45449999999997,
        "RAAN(deg)": 80.0,
        "Satellite Name": "Test1 370",
        "Satellite Number": 370,
        "Semi-Major Axis(m)": 6980739.136638005,
        "Time(s)": 0
    },
    {
        "Altitude(m)": 622058.3176304122,
        "Argument of Periapsis(deg)": 0.00010418945913296404,
        "Eccentricity": 0.0,
        "Inclination(deg)": 60.0,
        "Latitude(deg)": -51.79940531767815,
        "Longitude(deg)": -66.87114500991181,
        "Mean Anomaly(deg)": -64.83439385453813,
        "RAAN(deg)": 79.99957995086025,
        "Satellite Name": "Test1 370",
        "Satellite Number": 370,
        "Semi-Major Axis(m)": 6980739.136638005,
        "Time(s)": 10
    },
    {
        "Altitude(m)": 621913.752048281,
        "Argument of Periapsis(deg)": 0.0002083789182659281,
        "Eccentricity": 0.0,
        "Inclination(deg)": 60.0,
        "Latitude(deg)": -51.430642928596264,
        "Longitude(deg)": -66.11606455090526,
        "Mean Anomaly(deg)": -64.21428770907634,
        "RAAN(deg)": 79.99915990172052,
        "Satellite Name": "Test1 370",
        "Satellite Number": 370,
        "Semi-Major Axis(m)": 6980739.136638005,
        "Time(s)": 20
    },
    {
        "Altitude(m)": 621766.5096076707,
        "Argument of Periapsis(deg)": 0.00031256837739889213,
        "Eccentricity": 0.0,
        "Inclination(deg)": 60.0,
        "Latitude(deg)": -51.0565260718748,
        "Longitude(deg)": -65.3737732519177,
        "Mean Anomaly(deg)": -63.594181563614505,
        "RAAN(deg)": 79.99873985258077,
        "Satellite Name": "Test1 370",
        "Satellite Number": 370,
        "Semi-Major Axis(m)": 6980739.136638005,
        "Time(s)": 30
    },
    {
        "Altitude(m)": 621616.6477643471,
        "Argument of Periapsis(deg)": 0.0004167578365318562,
        "Eccentricity": 0.0,
        "Inclination(deg)": 60.0,
        "Latitude(deg)": -50.67720817861088,
        "Longitude(deg)": -64.64407364769455,
        "Mean Anomaly(deg)": -62.97407541815266,
        "RAAN(deg)": 79.99831980344103,
        "Satellite Name": "Test1 370",
        "Satellite Number": 370,
        "Semi-Major Axis(m)": 6980739.136638005,
        "Time(s)": 40
    },
    {
        "Altitude(m)": 621464.224965886,
        "Argument of Periapsis(deg)": 0.0005209472956648203,
        "Eccentricity": 0.0,
        "Inclination(deg)": 60.0,
        "Latitude(deg)": -50.292838962323046,
        "Longitude(deg)": -63.92676255731002,
        "Mean Anomaly(deg)": -62.353969272690826,
        "RAAN(deg)": 79.99789975430129,
        "Satellite Name": "Test1 370",
        "Satellite Number": 370,
        "Semi-Major Axis(m)": 6980739.136638005,
        "Time(s)": 50
    },
    {
        "Altitude(m)": 621309.3006266172,
        "Argument of Periapsis(deg)": 0.0006251367547977843,
        "Eccentricity": 0.0,
        "Inclination(deg)": 60.0,
        "Latitude(deg)": -49.90356440650169,
        "Longitude(deg)": -63.22163155179649,
        "Mean Anomaly(deg)": -61.73386312722903,
        "RAAN(deg)": 79.99747970516155,
        "Satellite Name": "Test1 370",
        "Satellite Number": 370,
        "Semi-Major Axis(m)": 6980739.136638005,
        "Time(s)": 60
    },
    {
        "Altitude(m)": 621151.9351021526,
        "Argument of Periapsis(deg)": 0.0007293262139307483,
        "Eccentricity": 0.0,
        "Inclination(deg)": 60.0,
        "Latitude(deg)": -49.50952676531094,
        "Longitude(deg)": -62.52846735383124,
        "Mean Anomaly(deg)": -61.11375698176713,
        "RAAN(deg)": 79.9970596560218,
        "Satellite Name": "Test1 370",
        "Satellite Number": 370,
        "Semi-Major Axis(m)": 6980739.136638005,
        "Time(s)": 70
    },
    {
        "Altitude(m)": 620992.1896634717,
        "Argument of Periapsis(deg)": 0.0008335156730637124,
        "Eccentricity": 0.0,
        "Inclination(deg)": 60.0,
        "Latitude(deg)": -49.110864576110856,
        "Longitude(deg)": -61.847053684179514,
        "Mean Anomaly(deg)": -60.49365083630535,
        "RAAN(deg)": 79.99663960688207,
        "Satellite Name": "Test1 370",
        "Satellite Number": 370,
        "Semi-Major Axis(m)": 6980739.136638005,
        "Time(s)": 80
    },
    {
        "Altitude(m)": 620830.1264706097,
        "Argument of Periapsis(deg)": 0.0009377051321966765,
        "Eccentricity": 0.0,
        "Inclination(deg)": 60.0,
        "Latitude(deg)": -48.707712682537284,
        "Longitude(deg)": -61.17717153129599,
        "Mean Anomaly(deg)": -59.87354469084352,
        "RAAN(deg)": 79.99621955774232,
        "Satellite Name": "Test1 370",
        "Satellite Number": 370,
        "Semi-Major Axis(m)": 6980739.136638005,
        "Time(s)": 90
    },
    {
        "Altitude(m)": 620665.8085459413,
        "Argument of Periapsis(deg)": 0.0010418945913296407,
        "Eccentricity": 0.0,
        "Inclination(deg)": 60.0,
        "Latitude(deg)": -48.3002022669578,
        "Longitude(deg)": -60.518599359380126,
        "Mean Anomaly(deg)": -59.253438545381655,
        "RAAN(deg)": 79.99579950860256,
        "Satellite Name": "Test1 370",
        "Satellite Number": 370,
        "Semi-Major Axis(m)": 6980739.136638005,
        "Time(s)": 100
    },
    {
        "Altitude(m)": 620499.2997470526,
        "Argument of Periapsis(deg)": 0.0011460840504626045,
        "Eccentricity": 0.0,
        "Inclination(deg)": 60.0,
        "Latitude(deg)": -47.88846089119723,
        "Longitude(deg)": -59.87111477037738,
        "Mean Anomaly(deg)": -58.633332399919865,
        "RAAN(deg)": 79.99537945946282,
        "Satellite Name": "Test1 370",
        "Satellite Number": 370,
        "Semi-Major Axis(m)": 6980739.136638005,
        "Time(s)": 110
    },
    {
        "Altitude(m)": 620330.6647392451,
        "Argument of Periapsis(deg)": 0.0012502735095955685,
        "Eccentricity": 0.0,
        "Inclination(deg)": 60.0,
        "Latitude(deg)": -47.47261254449926,
        "Longitude(deg)": -59.23449459692891,
        "Mean Anomaly(deg)": -58.013226254458026,
        "RAAN(deg)": 79.99495941032308,
        "Satellite Name": "Test1 370",
        "Satellite Number": 370,
        "Semi-Major Axis(m)": 6980739.136638005,
        "Time(s)": 120
    },
    {
        "Altitude(m)": 620159.9689676951,
        "Argument of Periapsis(deg)": 0.0013544629687285324,
        "Eccentricity": 0.0,
        "Inclination(deg)": 60.0,
        "Latitude(deg)": -47.0527776977709,
        "Longitude(deg)": -58.60851494199558,
        "Mean Anomaly(deg)": -57.393120108996186,
        "RAAN(deg)": 79.99453936118334,
        "Satellite Name": "Test1 370",
        "Satellite Number": 370,
        "Semi-Major Axis(m)": 6980739.136638005,
        "Time(s)": 130
    },
    {
        "Altitude(m)": 619987.2786291814,
        "Argument of Periapsis(deg)": 0.0014586524278614966,
        "Eccentricity": 0.0,
        "Inclination(deg)": 60.0,
        "Latitude(deg)": -46.629073363228144,
        "Longitude(deg)": -57.99295268092661,
        "Mean Anomaly(deg)": -56.773013963534346,
        "RAAN(deg)": 79.99411931204361,
        "Satellite Name": "Test1 370",
        "Satellite Number": 370,
        "Semi-Major Axis(m)": 6980739.136638005,
        "Time(s)": 140
    },
    {
        "Altitude(m)": 619812.6606435659,
        "Argument of Periapsis(deg)": 0.0015628418869944607,
        "Eccentricity": 0.0,
        "Inclination(deg)": 60.0,
        "Latitude(deg)": -46.201613158630295,
        "Longitude(deg)": -57.38758540312935,
        "Mean Anomaly(deg)": -56.15290781807255,
        "RAAN(deg)": 79.99369926290386,
        "Satellite Name": "Test1 370",
        "Satellite Number": 370,
        "Semi-Major Axis(m)": 6980739.136638005,
        "Time(s)": 150
    },
    {
        "Altitude(m)": 619636.1826248437,
        "Argument of Periapsis(deg)": 0.0016670313461274247,
        "Eccentricity": 0.0,
        "Inclination(deg)": 60.0,
        "Latitude(deg)": -45.77050737536147,
        "Longitude(deg)": -56.79219130910545,
        "Mean Anomaly(deg)": -55.53280167261067,
        "RAAN(deg)": 79.99327921376411,
        "Satellite Name": "Test1 370",
        "Satellite Number": 370,
        "Semi-Major Axis(m)": 6980739.136638005,
        "Time(s)": 160
    },
    {
        "Altitude(m)": 619457.9128519325,
        "Argument of Periapsis(deg)": 0.0017712208052603888,
        "Eccentricity": 0.0,
        "Inclination(deg)": 60.0,
        "Latitude(deg)": -45.335863049684725,
        "Longitude(deg)": -56.20655057857494,
        "Mean Anomaly(deg)": -54.91269552714887,
        "RAAN(deg)": 79.99285916462436,
        "Satellite Name": "Test1 370",
        "Satellite Number": 370,
        "Semi-Major Axis(m)": 6980739.136638005,
        "Time(s)": 170
    },
    {
        "Altitude(m)": 619277.920239109,
        "Argument of Periapsis(deg)": 0.001875410264393353,
        "Eccentricity": 0.0,
        "Inclination(deg)": 60.0,
        "Latitude(deg)": -44.89778403654924,
        "Longitude(deg)": -55.63044518671437,
        "Mean Anomaly(deg)": -54.29258938168704,
        "RAAN(deg)": 79.99243911548463,
        "Satellite Name": "Test1 370",
        "Satellite Number": 370,
        "Semi-Major Axis(m)": 6980739.136638005,
        "Time(s)": 180
    },
    {
        "Altitude(m)": 619096.2743061804,
        "Argument of Periapsis(deg)": 0.0019795997235263173,
        "Eccentricity": 0.0,
        "Inclination(deg)": 60.0,
        "Latitude(deg)": -44.45637108539762,
        "Longitude(deg)": -55.06365868408528,
        "Mean Anomaly(deg)": -53.672483236225254,
        "RAAN(deg)": 79.99201906634488,
        "Satellite Name": "Test1 370",
        "Satellite Number": 370,
        "Semi-Major Axis(m)": 6980739.136638005,
        "Time(s)": 190
    }
]